{
  "type": "FeatureCollection",
  "features": [
    {
      "type": "Feature",
      "properties": {
        "norad_id": 66606,
        "name": "STARLINK-36063",
        "group": "last-30-days",
        "lat": -16.27672448717624,
        "lon": 65.58002692166515,
        "alt_km": 367.3610388638408,
        "timestamp": "2025-12-06T20:37:54.814052+00:00",
        "meta_object_name": "STARLINK-36063",
        "meta_object_id": "2025-270U",
        "meta_epoch": "2025-12-06T14:00:01.999872",
        "meta_mean_motion": 15.68501825,
        "meta_eccentricity": 0.0001669,
        "meta_inclination": 42.999,
        "meta_ra_of_asc_node": 228.978,
        "meta_arg_of_pericenter": 262.2847,
        "meta_mean_anomaly": 180.4173,
        "meta_ephemeris_type": 0,
        "meta_classification_type": "U",
        "meta_norad_cat_id": 66606,
        "meta_element_set_no": 999,
        "meta_rev_at_epoch": 341,
        "meta_bstar": -0.018382528,
        "meta_mean_motion_dot": -0.01898736,
        "meta_mean_motion_ddot": 0,
        "tle_line1": "1 66606U 25270U   25340.58335648 -.01898736  00000+0 -18383-1 0  9993",
        "tle_line2": "2 66606  42.9990 228.9780 0001669 262.2847 180.4173 15.68501825  3411"
      },
      "geometry": {
        "type": "Point",
        "coordinates": [
          65.58002692166515,
          -16.27672448717624
        ]
      }
    },
    {
      "type": "Feature",
      "properties": {
        "norad_id": 66607,
        "name": "STARLINK-35993",
        "group": "last-30-days",
        "lat": -15.032575556861564,
        "lon": 64.0751220300414,
        "alt_km": 367.26541244320015,
        "timestamp": "2025-12-06T20:37:54.814062+00:00",
        "meta_object_name": "STARLINK-35993",
        "meta_object_id": "2025-270V",
        "meta_epoch": "2025-12-06T14:00:01.999872",
        "meta_mean_motion": 15.68500745,
        "meta_eccentricity": 0.00016208,
        "meta_inclination": 42.999,
        "meta_ra_of_asc_node": 228.9832,
        "meta_arg_of_pericenter": 260.6436,
        "meta_mean_anomaly": 180.1446,
        "meta_ephemeris_type": 0,
        "meta_classification_type": "U",
        "meta_norad_cat_id": 66607,
        "meta_element_set_no": 999,
        "meta_rev_at_epoch": 331,
        "meta_bstar": -0.01839342,
        "meta_mean_motion_dot": -0.01899622,
        "meta_mean_motion_ddot": 0,
        "tle_line1": "1 66607U 25270V   25340.58335648 -.01899622  00000+0 -18393-1 0  9990",
        "tle_line2": "2 66607  42.9990 228.9832 0001620 260.6436 180.1446 15.68500745  3312"
      },
      "geometry": {
        "type": "Point",
        "coordinates": [
          64.0751220300414,
          -15.032575556861564
        ]
      }
    },
    {
      "type": "Feature",
      "properties": {
        "norad_id": 66608,
        "name": "STARLINK-36036",
        "group": "last-30-days",
        "lat": -17.511707596654254,
        "lon": 67.10695758994467,
        "alt_km": 367.4127330097681,
        "timestamp": "2025-12-06T20:37:54.814073+00:00",
        "meta_object_name": "STARLINK-36036",
        "meta_object_id": "2025-270W",
        "meta_epoch": "2025-12-06T14:00:01.999872",
        "meta_mean_motion": 15.68501311,
        "meta_eccentricity": 0.00016622,
        "meta_inclination": 42.9991,
        "meta_ra_of_asc_node": 228.9736,
        "meta_arg_of_pericenter": 260.9372,
        "meta_mean_anomaly": 183.6815,
        "meta_ephemeris_type": 0,
        "meta_classification_type": "U",
        "meta_norad_cat_id": 66608,
        "meta_element_set_no": 999,
        "meta_rev_at_epoch": 325,
        "meta_bstar": -0.018371244,
        "meta_mean_motion_dot": -0.01897662,
        "meta_mean_motion_ddot": 0,
        "tle_line1": "1 66608U 25270W   25340.58335648 -.01897662  00000+0 -18371-1 0  9999",
        "tle_line2": "2 66608  42.9991 228.9736 0001662 260.9372 183.6815 15.68501311  3256"
      },
      "geometry": {
        "type": "Point",
        "coordinates": [
          67.10695758994467,
          -17.511707596654254
        ]
      }
    },
    {
      "type": "Feature",
      "properties": {
        "norad_id": 66609,
        "name": "STARLINK-36034",
        "group": "last-30-days",
        "lat": -18.737756130106977,
        "lon": 68.65862032522753,
        "alt_km": 367.54241684983754,
        "timestamp": "2025-12-06T20:37:54.814083+00:00",
        "meta_object_name": "STARLINK-36034",
        "meta_object_id": "2025-270X",
        "meta_epoch": "2025-12-06T14:00:01.999872",
        "meta_mean_motion": 15.68500567,
        "meta_eccentricity": 0.00015734,
        "meta_inclination": 42.999,
        "meta_ra_of_asc_node": 228.9691,
        "meta_arg_of_pericenter": 261.4725,
        "meta_mean_anomaly": 185.0694,
        "meta_ephemeris_type": 0,
        "meta_classification_type": "U",
        "meta_norad_cat_id": 66609,
        "meta_element_set_no": 999,
        "meta_rev_at_epoch": 325,
        "meta_bstar": -0.018417291,
        "meta_mean_motion_dot": -0.0190176,
        "meta_mean_motion_ddot": 0,
        "tle_line1": "1 66609U 25270X   25340.58335648 -.01901760  00000+0 -18417-1 0  9996",
        "tle_line2": "2 66609  42.9990 228.9691 0001573 261.4725 185.0694 15.68500567  3258"
      },
      "geometry": {
        "type": "Point",
        "coordinates": [
          68.65862032522753,
          -18.737756130106977
        ]
      }
    },
    {
      "type": "Feature",
      "properties": {
        "norad_id": 66610,
        "name": "STARLINK-35680",
        "group": "last-30-days",
        "lat": -19.946362081993193,
        "lon": 70.22623083120217,
        "alt_km": 367.61502135267165,
        "timestamp": "2025-12-06T20:37:54.814095+00:00",
        "meta_object_name": "STARLINK-35680",
        "meta_object_id": "2025-270Y",
        "meta_epoch": "2025-12-06T14:00:01.999872",
        "meta_mean_motion": 15.68505716,
        "meta_eccentricity": 0.00015908,
        "meta_inclination": 42.999,
        "meta_ra_of_asc_node": 228.9638,
        "meta_arg_of_pericenter": 262.3443,
        "meta_mean_anomaly": 186.1087,
        "meta_ephemeris_type": 0,
        "meta_classification_type": "U",
        "meta_norad_cat_id": 66610,
        "meta_element_set_no": 999,
        "meta_rev_at_epoch": 352,
        "meta_bstar": -0.018445558,
        "meta_mean_motion_dot": -0.01904722,
        "meta_mean_motion_ddot": 0,
        "tle_line1": "1 66610U 25270Y   25340.58335648 -.01904722  00000+0 -18446-1 0  9991",
        "tle_line2": "2 66610  42.9990 228.9638 0001590 262.3443 186.1087 15.68505716  3526"
      },
      "geometry": {
        "type": "Point",
        "coordinates": [
          70.22623083120217,
          -19.946362081993193
        ]
      }
    },
    {
      "type": "Feature",
      "properties": {
        "norad_id": 66611,
        "name": "STARLINK-35583",
        "group": "last-30-days",
        "lat": -21.14278093260086,
        "lon": 71.82082066520233,
        "alt_km": 367.71819586564834,
        "timestamp": "2025-12-06T20:37:54.814108+00:00",
        "meta_object_name": "STARLINK-35583",
        "meta_object_id": "2025-270Z",
        "meta_epoch": "2025-12-06T14:00:01.999872",
        "meta_mean_motion": 15.68502741,
        "meta_eccentricity": 0.00015409,
        "meta_inclination": 42.999,
        "meta_ra_of_asc_node": 228.9588,
        "meta_arg_of_pericenter": 262.9865,
        "meta_mean_anomaly": 187.386,
        "meta_ephemeris_type": 0,
        "meta_classification_type": "U",
        "meta_norad_cat_id": 66611,
        "meta_element_set_no": 999,
        "meta_rev_at_epoch": 352,
        "meta_bstar": -0.018412509,
        "meta_mean_motion_dot": -0.01901451,
        "meta_mean_motion_ddot": 0,
        "tle_line1": "1 66611U 25270Z   25340.58335648 -.01901451  00000+0 -18413-1 0  9992",
        "tle_line2": "2 66611  42.9990 228.9588 0001540 262.9865 187.3860 15.68502741  3527"
      },
      "geometry": {
        "type": "Point",
        "coordinates": [
          71.82082066520233,
          -21.14278093260086
        ]
      }
    },
    {
      "type": "Feature",
      "properties": {
        "norad_id": 66612,
        "name": "STARLINK-36039",
        "group": "last-30-days",
        "lat": -22.32309975469585,
        "lon": 73.4401121369824,
        "alt_km": 367.7535311119527,
        "timestamp": "2025-12-06T20:37:54.814118+00:00",
        "meta_object_name": "STARLINK-36039",
        "meta_object_id": "2025-270AA",
        "meta_epoch": "2025-12-06T14:00:01.999872",
        "meta_mean_motion": 15.68504875,
        "meta_eccentricity": 0.00015982,
        "meta_inclination": 42.9989,
        "meta_ra_of_asc_node": 228.9537,
        "meta_arg_of_pericenter": 262.7217,
        "meta_mean_anomaly": 189.5671,
        "meta_ephemeris_type": 0,
        "meta_classification_type": "U",
        "meta_norad_cat_id": 66612,
        "meta_element_set_no": 999,
        "meta_rev_at_epoch": 341,
        "meta_bstar": -0.018450769,
        "meta_mean_motion_dot": -0.01905146,
        "meta_mean_motion_ddot": 0,
        "tle_line1": "1 66612U 25270AA  25340.58335648 -.01905146  00000+0 -18451-1 0  9990",
        "tle_line2": "2 66612  42.9989 228.9537 0001598 262.7217 189.5671 15.68504875  3414"
      },
      "geometry": {
        "type": "Point",
        "coordinates": [
          73.4401121369824,
          -22.32309975469585
        ]
      }
    }
  ]
}